start=new Date('2023-01-11T00:00:00.000Z').valueOf();
sats=[{"NORAD_CAT_ID":"47788","MEAN_ELEMENT_THEORY":"SGP4","REV_AT_EPOCH":"10302","MEAN_MOTION":"15.06396302","SITE":"AFETR","MEAN_MOTION_DOT":"0.00000579","EPHEMERIS_TYPE":"0","EPOCH":"2023-01-10T16:10:53.014944","RCS_SIZE":"LARGE","MEAN_ANOMALY":"294.2578","TLE_LINE2":"2 47788  53.0527   7.2054 0002662  65.8689 294.2578 15.06396302103022","REF_FRAME":"TEME","DECAY_DATE":null,"BSTAR":"0.00005777700000","ECCENTRICITY":"0.00026620","INCLINATION":"53.0527","RA_OF_ASC_NODE":"7.2054","MEAN_MOTION_DDOT":"0.0000000000000","CENTER_NAME":"EARTH","FILE":"3739267","PERIAPSIS":"545.381","GP_ID":"222720833","PERIOD":"95.592","TIME_SYSTEM":"UTC","OBJECT_TYPE":"PAYLOAD","ELEMENT_SET_NO":"999","LAUNCH_DATE":"2021-03-11","COUNTRY_CODE":"US","CLASSIFICATION_TYPE":"U","ARG_OF_PERICENTER":"65.8689","TLE_LINE1":"1 47788U 21018B   23010.67422471  .00000579  00000-0  57777-4 0  9993","APOAPSIS":"549.068","OBJECT_NAME":"STARLINK-2314","SEMIMAJOR_AXIS":"6925.360","OBJECT_ID":"2021-018B"},{"TIME_SYSTEM":"UTC","OBJECT_TYPE":"PAYLOAD","ELEMENT_SET_NO":"999","PERIAPSIS":"545.796","FILE":"3739267","PERIOD":"95.592","GP_ID":"222719088","APOAPSIS":"548.601","OBJECT_NAME":"STARLINK-2315","SEMIMAJOR_AXIS":"6925.333","OBJECT_ID":"2021-018C","LAUNCH_DATE":"2021-03-11","COUNTRY_CODE":"US","CLASSIFICATION_TYPE":"U","ARG_OF_PERICENTER":"44.3074","TLE_LINE1":"1 47789U 21018C   23010.72350936  .00003054  00000-0  22381-3 0  9999","TLE_LINE2":"2 47789  53.0522  11.9818 0002025  44.3074 315.8077 15.06405032102957","REF_FRAME":"TEME","RCS_SIZE":"MEDIUM","EPOCH":"2023-01-10T17:21:51.208704","MEAN_ANOMALY":"315.8077","REV_AT_EPOCH":"10295","NORAD_CAT_ID":"47789","MEAN_ELEMENT_THEORY":"SGP4","SITE":"AFETR","EPHEMERIS_TYPE":"0","MEAN_MOTION_DOT":"0.00003054","MEAN_MOTION":"15.06405032","RA_OF_ASC_NODE":"11.9818","ECCENTRICITY":"0.00020250","INCLINATION":"53.0522","MEAN_MOTION_DDOT":"0.0000000000000","CENTER_NAME":"EARTH","BSTAR":"0.00022381000000","DECAY_DATE":null},{"EPOCH":"2023-01-10T16:46:01.299360","RCS_SIZE":"LARGE","MEAN_ANOMALY":"324.7552","REF_FRAME":"TEME","TLE_LINE2":"2 47790  53.0553   2.0906 0002181  35.3581 324.7552 15.06405138103098","MEAN_MOTION":"15.06405138","SITE":"AFETR","MEAN_MOTION_DOT":"0.00003244","EPHEMERIS_TYPE":"0","NORAD_CAT_ID":"47790","MEAN_ELEMENT_THEORY":"SGP4","REV_AT_EPOCH":"10309","MEAN_MOTION_DDOT":"0.0000000000000","CENTER_NAME":"EARTH","ECCENTRICITY":"0.00021810","INCLINATION":"53.0553","RA_OF_ASC_NODE":"2.0906","DECAY_DATE":null,"BSTAR":"0.00023654000000","ELEMENT_SET_NO":"999","OBJECT_TYPE":"PAYLOAD","TIME_SYSTEM":"UTC","GP_ID":"222719838","PERIOD":"95.592","FILE":"3739267","PERIAPSIS":"545.687","APOAPSIS":"548.708","OBJECT_NAME":"STARLINK-2319","OBJECT_ID":"2021-018D","SEMIMAJOR_AXIS":"6925.333","ARG_OF_PERICENTER":"35.3581","TLE_LINE1":"1 47790U 21018D   23010.69862615  .00003244  00000-0  23654-3 0  9994","LAUNCH_DATE":"2021-03-11","COUNTRY_CODE":"US","CLASSIFICATION_TYPE":"U"},{"COUNTRY_CODE":"US","CLASSIFICATION_TYPE":"U","LAUNCH_DATE":"2021-03-11","TLE_LINE1":"1 47791U 21018E   23010.78433106 -.00000387  00000-0 -70701-5 0  9998","ARG_OF_PERICENTER":"33.2468","OBJECT_ID":"2021-018E","SEMIMAJOR_AXIS":"6925.362","OBJECT_NAME":"STARLINK-2322","APOAPSIS":"548.737","FILE":"3739267","PERIAPSIS":"545.716","GP_ID":"222720088","PERIOD":"95.592","TIME_SYSTEM":"UTC","OBJECT_TYPE":"PAYLOAD","ELEMENT_SET_NO":"999","DECAY_DATE":null,"BSTAR":"-0.00000707010000","INCLINATION":"53.0533","ECCENTRICITY":"0.00021810","RA_OF_ASC_NODE":"31.6894","CENTER_NAME":"EARTH","MEAN_MOTION_DDOT":"0.0000000000000","NORAD_CAT_ID":"47791","MEAN_ELEMENT_THEORY":"SGP4","REV_AT_EPOCH":"10268","MEAN_MOTION":"15.06395714","MEAN_MOTION_DOT":"-0.00000387","EPHEMERIS_TYPE":"0","SITE":"AFETR","MEAN_ANOMALY":"326.8657","RCS_SIZE":"LARGE","EPOCH":"2023-01-10T18:49:26.203584","REF_FRAME":"TEME","TLE_LINE2":"2 47791  53.0533  31.6894 0002181  33.2468 326.8657 15.06395714102683"},{"RA_OF_ASC_NODE":"11.9464","ECCENTRICITY":"0.00027320","INCLINATION":"53.0529","MEAN_MOTION_DDOT":"0.0000000000000","CENTER_NAME":"EARTH","BSTAR":"0.00030819000000","DECAY_DATE":null,"TLE_LINE2":"2 47792  53.0529  11.9464 0002732  60.1480 299.9780 15.06398479102956","REF_FRAME":"TEME","RCS_SIZE":"LARGE","EPOCH":"2023-01-10T17:32:29.753088","MEAN_ANOMALY":"299.9780","REV_AT_EPOCH":"10295","NORAD_CAT_ID":"47792","MEAN_ELEMENT_THEORY":"SGP4","SITE":"AFETR","EPHEMERIS_TYPE":"0","MEAN_MOTION_DOT":"0.00004311","MEAN_MOTION":"15.06398479","APOAPSIS":"549.110","OBJECT_NAME":"STARLINK-2334","SEMIMAJOR_AXIS":"6925.353","OBJECT_ID":"2021-018F","LAUNCH_DATE":"2021-03-11","COUNTRY_CODE":"US","CLASSIFICATION_TYPE":"U","ARG_OF_PERICENTER":"60.1480","TLE_LINE1":"1 47792U 21018F   23010.73089992  .00004311  00000-0  30819-3 0  9997","TIME_SYSTEM":"UTC","ELEMENT_SET_NO":"999","OBJECT_TYPE":"PAYLOAD","PERIAPSIS":"545.326","FILE":"3739267","PERIOD":"95.592","GP_ID":"222720334"},{"SEMIMAJOR_AXIS":"6925.366","OBJECT_ID":"2021-018G","OBJECT_NAME":"STARLINK-2338","APOAPSIS":"548.734","TLE_LINE1":"1 47793U 21018G   23010.81197813 -.00000404  00000-0 -82379-5 0  9990","ARG_OF_PERICENTER":"39.3224","CLASSIFICATION_TYPE":"U","COUNTRY_CODE":"US","LAUNCH_DATE":"2021-03-11","OBJECT_TYPE":"PAYLOAD","ELEMENT_SET_NO":"999","TIME_SYSTEM":"UTC","GP_ID":"222719588","PERIOD":"95.592","FILE":"3739267","PERIAPSIS":"545.728","CENTER_NAME":"EARTH","MEAN_MOTION_DDOT":"0.0000000000000","INCLINATION":"53.0554","ECCENTRICITY":"0.00021700","RA_OF_ASC_NODE":"11.5817","DECAY_DATE":null,"BSTAR":"-0.00000823790000","MEAN_ANOMALY":"320.7922","EPOCH":"2023-01-10T19:29:14.910432","RCS_SIZE":"LARGE","REF_FRAME":"TEME","TLE_LINE2":"2 47793  53.0554  11.5817 0002170  39.3224 320.7922 15.06394399102951","MEAN_MOTION":"15.06394399","EPHEMERIS_TYPE":"0","MEAN_MOTION_DOT":"-0.00000404","SITE":"AFETR","NORAD_CAT_ID":"47793","MEAN_ELEMENT_THEORY":"SGP4","REV_AT_EPOCH":"10295"},{"BSTAR":"0.00013257000000","DECAY_DATE":null,"RA_OF_ASC_NODE":"13.9502","INCLINATION":"53.0552","ECCENTRICITY":"0.00024470","CENTER_NAME":"EARTH","MEAN_MOTION_DDOT":"0.0000000000000","REV_AT_EPOCH":"10288","MEAN_ELEMENT_THEORY":"SGP4","NORAD_CAT_ID":"47794","EPHEMERIS_TYPE":"0","MEAN_MOTION_DOT":"0.00001693","SITE":"AFETR","MEAN_MOTION":"15.06398285","TLE_LINE2":"2 47794  53.0552  13.9502 0002447  34.9372 325.1777 15.06398285102886","REF_FRAME":"TEME","MEAN_ANOMALY":"325.1777","EPOCH":"2023-01-10T06:50:13.817760","RCS_SIZE":"LARGE","CLASSIFICATION_TYPE":"U","COUNTRY_CODE":"US","LAUNCH_DATE":"2021-03-11","TLE_LINE1":"1 47794U 21018H   23010.28488215  .00001693  00000-0  13257-3 0  9997","ARG_OF_PERICENTER":"34.9372","OBJECT_ID":"2021-018H","SEMIMAJOR_AXIS":"6925.354","OBJECT_NAME":"STARLINK-2341","APOAPSIS":"548.913","FILE":"3739038","PERIAPSIS":"545.524","PERIOD":"95.592","GP_ID":"222662849","TIME_SYSTEM":"UTC","OBJECT_TYPE":"PAYLOAD","ELEMENT_SET_NO":"999"},{"RCS_SIZE":"LARGE","EPOCH":"2023-01-10T17:43:05.269152","MEAN_ANOMALY":"319.5404","TLE_LINE2":"2 47795  53.0549  11.9156 0002093  40.5740 319.5404 15.06396440103005","REF_FRAME":"TEME","MEAN_MOTION":"15.06396440","SITE":"AFETR","MEAN_MOTION_DOT":"-0.00001437","EPHEMERIS_TYPE":"0","NORAD_CAT_ID":"47795","MEAN_ELEMENT_THEORY":"SGP4","REV_AT_EPOCH":"10300","MEAN_MOTION_DDOT":"0.0000000000000","CENTER_NAME":"EARTH","ECCENTRICITY":"0.00020930","INCLINATION":"53.0549","RA_OF_ASC_NODE":"11.9156","DECAY_DATE":null,"BSTAR":"-0.00007756500000","OBJECT_TYPE":"PAYLOAD","ELEMENT_SET_NO":"999","TIME_SYSTEM":"UTC","GP_ID":"222720588","PERIOD":"95.592","PERIAPSIS":"545.775","FILE":"3739267","APOAPSIS":"548.674","OBJECT_NAME":"STARLINK-2347","OBJECT_ID":"2021-018J","SEMIMAJOR_AXIS":"6925.359","ARG_OF_PERICENTER":"40.5740","TLE_LINE1":"1 47795U 21018J   23010.73825543 -.00001437  00000-0 -77565-4 0  9998","LAUNCH_DATE":"2021-03-11","CLASSIFICATION_TYPE":"U","COUNTRY_CODE":"US"},{"EPOCH":"2023-01-10T16:28:46.615296","RCS_SIZE":"LARGE","MEAN_ANOMALY":"323.7759","REF_FRAME":"TEME","TLE_LINE2":"2 47796  53.0547  12.1450 0002455  36.3396 323.7759 15.06401142102944","NORAD_CAT_ID":"47796","MEAN_ELEMENT_THEORY":"SGP4","REV_AT_EPOCH":"10294","MEAN_MOTION":"15.06401142","SITE":"AFETR","MEAN_MOTION_DOT":"0.00000866","EPHEMERIS_TYPE":"0","ECCENTRICITY":"0.00024550","INCLINATION":"53.0547","RA_OF_ASC_NODE":"12.1450","MEAN_MOTION_DDOT":"0.0000000000000","CENTER_NAME":"EARTH","DECAY_DATE":null,"BSTAR":"0.00007705200000","TIME_SYSTEM":"UTC","ELEMENT_SET_NO":"999","OBJECT_TYPE":"PAYLOAD","FILE":"3739267","PERIAPSIS":"545.510","GP_ID":"222720834","PERIOD":"95.592","APOAPSIS":"548.910","OBJECT_NAME":"STARLINK-2373","OBJECT_ID":"2021-018K","SEMIMAJOR_AXIS":"6925.345","LAUNCH_DATE":"2021-03-11","COUNTRY_CODE":"US","CLASSIFICATION_TYPE":"U","ARG_OF_PERICENTER":"36.3396","TLE_LINE1":"1 47796U 21018K   23010.68665064  .00000866  00000-0  77052-4 0  9997"},{"TLE_LINE2":"2 47797  53.0528  36.6811 0001986  74.3412 285.7796 15.06395787102603","REF_FRAME":"TEME","MEAN_ANOMALY":"285.7796","EPOCH":"2023-01-10T18:56:45.090528","RCS_SIZE":"LARGE","EPHEMERIS_TYPE":"0","MEAN_MOTION_DOT":"0.00000634","SITE":"AFETR","MEAN_MOTION":"15.06395787","REV_AT_EPOCH":"10260","NORAD_CAT_ID":"47797","MEAN_ELEMENT_THEORY":"SGP4","CENTER_NAME":"EARTH","MEAN_MOTION_DDOT":"0.0000000000000","RA_OF_ASC_NODE":"36.6811","INCLINATION":"53.0528","ECCENTRICITY":"0.00019860","BSTAR":"0.00006149500000","DECAY_DATE":null,"ELEMENT_SET_NO":"999","OBJECT_TYPE":"PAYLOAD","TIME_SYSTEM":"UTC","PERIOD":"95.592","GP_ID":"222719089","FILE":"3739267","PERIAPSIS":"545.851","SEMIMAJOR_AXIS":"6925.361","OBJECT_ID":"2021-018L","APOAPSIS":"548.602","OBJECT_NAME":"STARLINK-2377","TLE_LINE1":"1 47797U 21018L   23010.78941077  .00000634  00000-0  61495-4 0  9997","ARG_OF_PERICENTER":"74.3412","COUNTRY_CODE":"US","CLASSIFICATION_TYPE":"U","LAUNCH_DATE":"2021-03-11"}];
